H1 CPF  2 ESA 2024 11 20 10 325 01 galileo101
H2  1106001 7101    37846 2024 11 19 23 59 42 2024 11 24 23 59 42   900 1 1  0 0 0  1
H9
10 0 60638  86382.000000  0      15713512.280       3958299.556      24769136.234
99